[{"OBJECT_NAME":"ONEWEB-0141","OBJECT_ID":"2020-100AF","EPOCH":"2025-08-29T04:17:22.560576","MEAN_MOTION":13.12441356,"ECCENTRICITY":0.00018693,"INCLINATION":87.8865,"RA_OF_ASC_NODE":48.678,"ARG_OF_PERICENTER":100.7108,"MEAN_ANOMALY":259.4231,"EPHEMERIS_TYPE":0,"CLASSIFICATION_TYPE":"U","NORAD_CAT_ID":47287,"ELEMENT_SET_NO":999,"REV_AT_EPOCH":22637,"BSTAR":-0.0010094736,"MEAN_MOTION_DOT":-3.5e-6,"MEAN_MOTION_DDOT":0},{"OBJECT_NAME":"ONEWEB-0142","OBJECT_ID":"2020-100AG","EPOCH":"2025-08-29T04:01:24.777696","MEAN_MOTION":13.12442665,"ECCENTRICITY":0.00017091,"INCLINATION":87.8882,"RA_OF_ASC_NODE":48.6944,"ARG_OF_PERICENTER":105.9907,"MEAN_ANOMALY":254.141,"EPHEMERIS_TYPE":0,"CLASSIFICATION_TYPE":"U","NORAD_CAT_ID":47288,"ELEMENT_SET_NO":999,"REV_AT_EPOCH":22636,"BSTAR":-4.9564052e-5,"MEAN_MOTION_DOT":-5.0e-8,"MEAN_MOTION_DDOT":0},{"OBJECT_NAME":"ONEWEB-0143","OBJECT_ID":"2020-100AH","EPOCH":"2025-08-29T04:15:14.517504","MEAN_MOTION":13.12441273,"ECCENTRICITY":0.00017094,"INCLINATION":87.8878,"RA_OF_ASC_NODE":48.6894,"ARG_OF_PERICENTER":91.5349,"MEAN_ANOMALY":268.5975,"EPHEMERIS_TYPE":0,"CLASSIFICATION_TYPE":"U","NORAD_CAT_ID":47289,"ELEMENT_SET_NO":999,"REV_AT_EPOCH":22634,"BSTAR":-0.00081486029,"MEAN_MOTION_DOT":-2.8e-6,"MEAN_MOTION_DDOT":0},{"OBJECT_NAME":"ONEWEB-0144","OBJECT_ID":"2020-100AJ","EPOCH":"2025-08-29T05:25:20.150688","MEAN_MOTION":13.12442153,"ECCENTRICITY":0.00015472,"INCLINATION":87.887,"RA_OF_ASC_NODE":48.6565,"ARG_OF_PERICENTER":100.4946,"MEAN_ANOMALY":259.6357,"EPHEMERIS_TYPE":0,"CLASSIFICATION_TYPE":"U","NORAD_CAT_ID":47290,"ELEMENT_SET_NO":999,"REV_AT_EPOCH":22627,"BSTAR":0.0012304648,"MEAN_MOTION_DOT":4.55e-6,"MEAN_MOTION_DDOT":0},{"OBJECT_NAME":"ONEWEB-0145","OBJECT_ID":"2020-100AK","EPOCH":"2025-08-29T04:43:16.785120","MEAN_MOTION":13.12442689,"ECCENTRICITY":0.00016385,"INCLINATION":87.8879,"RA_OF_ASC_NODE":48.6924,"ARG_OF_PERICENTER":94.0558,"MEAN_ANOMALY":266.0758,"EPHEMERIS_TYPE":0,"CLASSIFICATION_TYPE":"U","NORAD_CAT_ID":47291,"ELEMENT_SET_NO":999,"REV_AT_EPOCH":22646,"BSTAR":-0.00092726932,"MEAN_MOTION_DOT":-3.21e-6,"MEAN_MOTION_DDOT":0},{"OBJECT_NAME":"ONEWEB-0146","OBJECT_ID":"2020-100AL","EPOCH":"2025-08-29T04:38:36.339360","MEAN_MOTION":13.12442963,"ECCENTRICITY":0.00019529,"INCLINATION":87.8881,"RA_OF_ASC_NODE":48.6798,"ARG_OF_PERICENTER":84.0405,"MEAN_ANOMALY":276.0947,"EPHEMERIS_TYPE":0,"CLASSIFICATION_TYPE":"U","NORAD_CAT_ID":47292,"ELEMENT_SET_NO":999,"REV_AT_EPOCH":22637,"BSTAR":-0.0010591524,"MEAN_MOTION_DOT":-3.68e-6,"MEAN_MOTION_DDOT":0},{"OBJECT_NAME":"ONEWEB-0147","OBJECT_ID":"2020-100AM","EPOCH":"2025-08-29T05:39:21.517344","MEAN_MOTION":13.12442948,"ECCENTRICITY":0.00014434,"INCLINATION":87.8879,"RA_OF_ASC_NODE":48.6495,"ARG_OF_PERICENTER":87.4213,"MEAN_ANOMALY":272.7081,"EPHEMERIS_TYPE":0,"CLASSIFICATION_TYPE":"U","NORAD_CAT_ID":47293,"ELEMENT_SET_NO":999,"REV_AT_EPOCH":22627,"BSTAR":0.00084142256,"MEAN_MOTION_DOT":3.15e-6,"MEAN_MOTION_DDOT":0},{"OBJECT_NAME":"ONEWEB-0115","OBJECT_ID":"2021-025A","EPOCH":"2025-08-29T02:39:35.031168","MEAN_MOTION":13.13471387,"ECCENTRICITY":0.00017595,"INCLINATION":87.9009,"RA_OF_ASC_NODE":18.2321,"ARG_OF_PERICENTER":96.7736,"MEAN_ANOMALY":263.3594,"EPHEMERIS_TYPE":0,"CLASSIFICATION_TYPE":"U","NORAD_CAT_ID":48042,"ELEMENT_SET_NO":999,"REV_AT_EPOCH":21525,"BSTAR":-0.00054618098,"MEAN_MOTION_DOT":-1.87e-6,"MEAN_MOTION_DDOT":0},{"OBJECT_NAME":"ONEWEB-0152","OBJECT_ID":"2021-025B","EPOCH":"2025-08-29T06:38:28.293504","MEAN_MOTION":13.13469979,"ECCENTRICITY":0.00017477,"INCLINATION":87.9011,"RA_OF_ASC_NODE":18.2134,"ARG_OF_PERICENTER":93.4655,"MEAN_ANOMALY":266.6675,"EPHEMERIS_TYPE":0,"CLASSIFICATION_TYPE":"U","NORAD_CAT_ID":48043,"ELEMENT_SET_NO":999,"REV_AT_EPOCH":21523,"BSTAR":0.00039209187,"MEAN_MOTION_DOT":1.56e-6,"MEAN_MOTION_DDOT":0},{"OBJECT_NAME":"ONEWEB-0153","OBJECT_ID":"2021-025C","EPOCH":"2025-08-28T22:47:59.859168","MEAN_MOTION":13.13468855,"ECCENTRICITY":0.00017646,"INCLINATION":87.9012,"RA_OF_ASC_NODE":18.2773,"ARG_OF_PERICENTER":98.8636,"MEAN_ANOMALY":261.2692,"EPHEMERIS_TYPE":0,"CLASSIFICATION_TYPE":"U","NORAD_CAT_ID":48044,"ELEMENT_SET_NO":999,"REV_AT_EPOCH":21518,"BSTAR":-0.00081713977,"MEAN_MOTION_DOT":-2.86e-6,"MEAN_MOTION_DDOT":0},{"OBJECT_NAME":"ONEWEB-0154","OBJECT_ID":"2021-025D","EPOCH":"2025-08-29T02:22:30.930240","MEAN_MOTION":13.13472463,"ECCENTRICITY":0.00017112,"INCLINATION":87.9009,"RA_OF_ASC_NODE":18.2453,"ARG_OF_PERICENTER":96.2921,"MEAN_ANOMALY":263.8404,"EPHEMERIS_TYPE":0,"CLASSIFICATION_TYPE":"U","NORAD_CAT_ID":48045,"ELEMENT_SET_NO":999,"REV_AT_EPOCH":21516,"BSTAR":-0.00079591832,"MEAN_MOTION_DOT":-2.78e-6,"MEAN_MOTION_DDOT":0},{"OBJECT_NAME":"ONEWEB-0116","OBJECT_ID":"2021-025E","EPOCH":"2025-08-29T03:18:35.694432","MEAN_MOTION":13.13470235,"ECCENTRICITY":0.00018003,"INCLINATION":87.9015,"RA_OF_ASC_NODE":18.2192,"ARG_OF_PERICENTER":92.8992,"MEAN_ANOMALY":267.2344,"EPHEMERIS_TYPE":0,"CLASSIFICATION_TYPE":"U","NORAD_CAT_ID":48046,"ELEMENT_SET_NO":999,"REV_AT_EPOCH":21531,"BSTAR":0.0010079479,"MEAN_MOTION_DOT":3.81e-6,"MEAN_MOTION_DDOT":0},{"OBJECT_NAME":"ONEWEB-0150","OBJECT_ID":"2021-025F","EPOCH":"2025-08-29T02:44:26.765952","MEAN_MOTION":13.13469464,"ECCENTRICITY":0.00019095,"INCLINATION":87.9012,"RA_OF_ASC_NODE":18.2191,"ARG_OF_PERICENTER":101.6832,"MEAN_ANOMALY":258.4512,"EPHEMERIS_TYPE":0,"CLASSIFICATION_TYPE":"U","NORAD_CAT_ID":48047,"ELEMENT_SET_NO":999,"REV_AT_EPOCH":21520,"BSTAR":-0.00064852204,"MEAN_MOTION_DOT":-2.24e-6,"MEAN_MOTION_DDOT":0},{"OBJECT_NAME":"ONEWEB-0107","OBJECT_ID":"2021-025G","EPOCH":"2025-08-28T21:17:47.783904","MEAN_MOTION":13.1347023,"ECCENTRICITY":0.00015844,"INCLINATION":87.901,"RA_OF_ASC_NODE":18.2621,"ARG_OF_PERICENTER":107.3439,"MEAN_ANOMALY":252.7864,"EPHEMERIS_TYPE":0,"CLASSIFICATION_TYPE":"U","NORAD_CAT_ID":48048,"ELEMENT_SET_NO":999,"REV_AT_EPOCH":21515,"BSTAR":-0.0003109199,"MEAN_MOTION_DOT":-1.01e-6,"MEAN_MOTION_DDOT":0},{"OBJECT_NAME":"ONEWEB-0101","OBJECT_ID":"2021-025H","EPOCH":"2025-08-28T22:13:52.593024","MEAN_MOTION":13.13469436,"ECCENTRICITY":0.00015877,"INCLINATION":87.901,"RA_OF_ASC_NODE":18.2936,"ARG_OF_PERICENTER":98.4513,"MEAN_ANOMALY":261.6796,"EPHEMERIS_TYPE":0,"CLASSIFICATION_TYPE":"U","NORAD_CAT_ID":48049,"ELEMENT_SET_NO":999,"REV_AT_EPOCH":21513,"BSTAR":0.00026523336,"MEAN_MOTION_DOT":1.1e-6,"MEAN_MOTION_DDOT":0},{"OBJECT_NAME":"ONEWEB-0113","OBJECT_ID":"2021-025J","EPOCH":"2025-08-29T06:55:08.085792","MEAN_MOTION":13.13976754,"ECCENTRICITY":0.00018623,"INCLINATION":87.9011,"RA_OF_ASC_NODE":18.1651,"ARG_OF_PERICENTER":93.086,"MEAN_ANOMALY":267.0483,"EPHEMERIS_TYPE":0,"CLASSIFICATION_TYPE":"U","NORAD_CAT_ID":48050,"ELEMENT_SET_NO":999,"REV_AT_EPOCH":21527,"BSTAR":0.00083890299,"MEAN_MOTION_DOT":3.21e-6,"MEAN_MOTION_DDOT":0}]
