ONEWEB-0141             
1 47287U 20100AF  25241.17873334 -.00000350  00000+0 -10095-2 0  9997
2 47287  87.8865  48.6780 0001869 100.7108 259.4231 13.12441356226372
ONEWEB-0142             
1 47288U 20100AG  25241.16764789 -.00000005  00000+0 -49564-4 0  9992
2 47288  87.8882  48.6944 0001709 105.9907 254.1410 13.12442665226365
ONEWEB-0143             
1 47289U 20100AH  25241.17725136 -.00000280  00000+0 -81486-3 0  9990
2 47289  87.8878  48.6894 0001709  91.5349 268.5975 13.12441273226342
ONEWEB-0144             
1 47290U 20100AJ  25241.22592767  .00000455  00000+0  12305-2 0  9995
2 47290  87.8870  48.6565 0001547 100.4946 259.6357 13.12442153226279
ONEWEB-0145             
1 47291U 20100AK  25241.19672205 -.00000321  00000+0 -92727-3 0  9999
2 47291  87.8879  48.6924 0001638  94.0558 266.0758 13.12442689226468
ONEWEB-0146             
1 47292U 20100AL  25241.19347615 -.00000368  00000+0 -10592-2 0  9994
2 47292  87.8881  48.6798 0001952  84.0405 276.0947 13.12442963226376
ONEWEB-0147             
1 47293U 20100AM  25241.23566571  .00000315  00000+0  84142-3 0  9997
2 47293  87.8879  48.6495 0001443  87.4213 272.7081 13.12442948226271
ONEWEB-0115             
1 48042U 21025A   25241.11082212 -.00000187  00000+0 -54618-3 0  9993
2 48042  87.9009  18.2321 0001759  96.7736 263.3594 13.13471387215255
ONEWEB-0152             
1 48043U 21025B   25241.27671636  .00000156  00000+0  39209-3 0  9998
2 48043  87.9011  18.2134 0001747  93.4655 266.6675 13.13469979215230
ONEWEB-0153             
1 48044U 21025C   25240.94999837 -.00000286  00000+0 -81714-3 0  9992
2 48044  87.9012  18.2773 0001764  98.8636 261.2692 13.13468855215184
ONEWEB-0154             
1 48045U 21025D   25241.09896910 -.00000278  00000+0 -79592-3 0  9990
2 48045  87.9009  18.2453 0001711  96.2921 263.8404 13.13472463215164
ONEWEB-0116             
1 48046U 21025E   25241.13791313  .00000381  00000+0  10079-2 0  9994
2 48046  87.9015  18.2192 0001800  92.8992 267.2344 13.13470235215314
ONEWEB-0150             
1 48047U 21025F   25241.11419868 -.00000224  00000+0 -64852-3 0  9992
2 48047  87.9012  18.2191 0001909 101.6832 258.4512 13.13469464215202
ONEWEB-0107             
1 48048U 21025G   25240.88735861 -.00000101  00000+0 -31092-3 0  9994
2 48048  87.9010  18.2621 0001584 107.3439 252.7864 13.13470230215158
ONEWEB-0101             
1 48049U 21025H   25240.92630316  .00000110  00000+0  26523-3 0  9990
2 48049  87.9010  18.2936 0001587  98.4513 261.6796 13.13469436215131
ONEWEB-0113             
1 48050U 21025J   25241.28828803  .00000321  00000+0  83890-3 0  9996
2 48050  87.9011  18.1651 0001862  93.0860 267.0483 13.13976754215273
